IRIDIUM 166             
1 43570U 18061B   24237.81970503  .00000839  00000+0  29263-3 0  9990
2 43570  86.4015 333.1358 0002067  90.2635 269.8798 14.34218028318601
IRIDIUM 158             
1 43571U 18061C   24237.78799166  .00000738  00000+0  25648-3 0  9992
2 43571  86.4016 333.1585 0001976  93.8453 266.2968 14.34217448318560
IRIDIUM 165             
1 43572U 18061D   24237.67382492  .00000836  00000+0  29150-3 0  9992
2 43572  86.4018 333.2399 0002097  95.0283 265.1153 14.34224273318576
IRIDIUM 155             
1 43573U 18061E   24237.77530599  .00000542  00000+0  18639-3 0  9991
2 43573  86.4013 333.0992 0002002  89.3283 270.8142 14.34219352318552
IRIDIUM 154             
1 43574U 18061F   24237.75627929  .00000365  00000+0  12316-3 0  9993
2 43574  86.4017 333.2083 0002351  95.6416 264.5048 14.34216891318601
IRIDIUM 163             
1 43575U 18061G   24237.80702415  .00000736  00000+0  25581-3 0  9994
2 43575  86.4015 333.1233 0002251  91.7006 268.4448 14.34221727318585
IRIDIUM 156             
1 43576U 18061H   24237.64210555  .00000694  00000+0  24085-3 0  9997
2 43576  86.4014 333.1984 0002000  95.6598 264.4826 14.34221878318559
IRIDIUM 164             
1 43577U 18061J   24237.83238913  .00000464  00000+0  15867-3 0  9990
2 43577  86.4015 333.1490 0002295 100.6671 259.4783 14.34219315318625
